start=new Date('2023-01-31T00:00:00.000Z').valueOf();
sats=[{"ELEMENT_SET_NO":"999","SITE":"AFETR","OBJECT_TYPE":"PAYLOAD","TLE_LINE1":"1 48020U 21024AV  23030.22818669  .00000445  00000-0  48790-4 0  9998","APOAPSIS":"548.194","NORAD_CAT_ID":"48020","RCS_SIZE":"LARGE","RA_OF_ASC_NODE":"319.8193","TIME_SYSTEM":"UTC","FILE":"3765576","EPHEMERIS_TYPE":"0","GP_ID":"223994722","REV_AT_EPOCH":"10448","ARG_OF_PERICENTER":"89.2919","MEAN_MOTION":"15.06397687","INCLINATION":"53.0517","CENTER_NAME":"EARTH","PERIAPSIS":"546.247","LAUNCH_DATE":"2021-03-24","MEAN_ANOMALY":"270.8231","SEMIMAJOR_AXIS":"6925.356","CLASSIFICATION_TYPE":"U","ECCENTRICITY":"0.00014060","PERIOD":"95.592","TLE_LINE2":"2 48020  53.0517 319.8193 0001406  89.2919 270.8231 15.06397687104482","MEAN_MOTION_DOT":"0.00000445","BSTAR":"0.00004879000000","MEAN_MOTION_DDOT":"0.0000000000000","OBJECT_NAME":"STARLINK-2294","MEAN_ELEMENT_THEORY":"SGP4","COUNTRY_CODE":"US","DECAY_DATE":null,"OBJECT_ID":"2021-024AV","EPOCH":"2023-01-30T05:28:35.330016","REF_FRAME":"TEME"},{"TLE_LINE1":"1 48021U 21024AW  23030.24057511  .00003579  00000-0  25900-3 0  9990","RA_OF_ASC_NODE":"324.3646","RCS_SIZE":"LARGE","TIME_SYSTEM":"UTC","NORAD_CAT_ID":"48021","APOAPSIS":"547.978","EPHEMERIS_TYPE":"0","FILE":"3765576","MEAN_MOTION":"15.06404974","GP_ID":"223994470","REV_AT_EPOCH":"10443","ARG_OF_PERICENTER":"95.0864","ELEMENT_SET_NO":"999","OBJECT_TYPE":"PAYLOAD","SITE":"AFETR","MEAN_ANOMALY":"265.0253","SEMIMAJOR_AXIS":"6925.333","INCLINATION":"53.0531","CENTER_NAME":"EARTH","LAUNCH_DATE":"2021-03-24","PERIAPSIS":"546.419","PERIOD":"95.592","TLE_LINE2":"2 48021  53.0531 324.3646 0001126  95.0864 265.0253 15.06404974104439","CLASSIFICATION_TYPE":"U","ECCENTRICITY":"0.00011260","DECAY_DATE":null,"REF_FRAME":"TEME","EPOCH":"2023-01-30T05:46:25.689504","OBJECT_ID":"2021-024AW","BSTAR":"0.00025900000000","MEAN_MOTION_DOT":"0.00003579","COUNTRY_CODE":"US","MEAN_MOTION_DDOT":"0.0000000000000","MEAN_ELEMENT_THEORY":"SGP4","OBJECT_NAME":"STARLINK-2301"},{"ECCENTRICITY":"0.00015310","CLASSIFICATION_TYPE":"U","PERIOD":"95.592","TLE_LINE2":"2 48022  53.0554  24.5147 0001531  93.8129 266.3035 15.06397827103642","MEAN_MOTION_DOT":"0.00000983","BSTAR":"0.00008486100000","MEAN_ELEMENT_THEORY":"SGP4","MEAN_MOTION_DDOT":"0.0000000000000","OBJECT_NAME":"STARLINK-2298","COUNTRY_CODE":"US","EPOCH":"2023-01-30T06:26:17.266560","OBJECT_ID":"2021-024AX","REF_FRAME":"TEME","DECAY_DATE":null,"SITE":"AFETR","OBJECT_TYPE":"PAYLOAD","ELEMENT_SET_NO":"999","NORAD_CAT_ID":"48022","APOAPSIS":"548.280","TIME_SYSTEM":"UTC","RCS_SIZE":"LARGE","RA_OF_ASC_NODE":"24.5147","TLE_LINE1":"1 48022U 21024AX  23030.26825540  .00000983  00000-0  84861-4 0  9996","GP_ID":"223995721","ARG_OF_PERICENTER":"93.8129","REV_AT_EPOCH":"10364","MEAN_MOTION":"15.06397827","EPHEMERIS_TYPE":"0","FILE":"3765576","INCLINATION":"53.0554","PERIAPSIS":"546.160","LAUNCH_DATE":"2021-03-24","CENTER_NAME":"EARTH","MEAN_ANOMALY":"266.3035","SEMIMAJOR_AXIS":"6925.355"},{"OBJECT_ID":"2021-024AY","EPOCH":"2023-01-30T20:30:10.370016","REF_FRAME":"TEME","DECAY_DATE":null,"MEAN_MOTION_DOT":"0.00001111","BSTAR":"0.00009348300000","MEAN_MOTION_DDOT":"0.0000000000000","MEAN_ELEMENT_THEORY":"SGP4","OBJECT_NAME":"STARLINK-2292","COUNTRY_CODE":"US","PERIOD":"95.592","TLE_LINE2":"2 48023  53.0545  21.6094 0001373  96.2899 263.8246 15.06396523103735","ECCENTRICITY":"0.00013730","CLASSIFICATION_TYPE":"U","MEAN_ANOMALY":"263.8246","SEMIMAJOR_AXIS":"6925.359","INCLINATION":"53.0545","LAUNCH_DATE":"2021-03-24","PERIAPSIS":"546.273","CENTER_NAME":"EARTH","APOAPSIS":"548.175","NORAD_CAT_ID":"48023","RCS_SIZE":"LARGE","RA_OF_ASC_NODE":"21.6094","TIME_SYSTEM":"UTC","TLE_LINE1":"1 48023U 21024AY  23030.85428669  .00001111  00000-0  93483-4 0  9997","GP_ID":"224053917","ARG_OF_PERICENTER":"96.2899","REV_AT_EPOCH":"10373","MEAN_MOTION":"15.06396523","FILE":"3765849","EPHEMERIS_TYPE":"0","SITE":"AFETR","OBJECT_TYPE":"PAYLOAD","ELEMENT_SET_NO":"999"},{"PERIOD":"95.592","TLE_LINE2":"2 48026  53.0549  28.7845 0001782  94.1789 265.9404 15.06396975103531","CLASSIFICATION_TYPE":"U","ECCENTRICITY":"0.00017820","DECAY_DATE":null,"REF_FRAME":"TEME","OBJECT_ID":"2021-024BB","EPOCH":"2023-01-30T08:51:32.285952","BSTAR":"0.00006991700000","MEAN_MOTION_DOT":"0.00000760","COUNTRY_CODE":"US","MEAN_ELEMENT_THEORY":"SGP4","MEAN_MOTION_DDOT":"0.0000000000000","OBJECT_NAME":"STARLINK-2278","TLE_LINE1":"1 48026U 21024BB  23030.36912368  .00000760  00000-0  69917-4 0  9994","TIME_SYSTEM":"UTC","RCS_SIZE":"LARGE","RA_OF_ASC_NODE":"28.7845","APOAPSIS":"548.457","NORAD_CAT_ID":"48026","FILE":"3765576","EPHEMERIS_TYPE":"0","MEAN_MOTION":"15.06396975","GP_ID":"223994222","REV_AT_EPOCH":"10353","ARG_OF_PERICENTER":"94.1789","ELEMENT_SET_NO":"999","OBJECT_TYPE":"PAYLOAD","SITE":"AFETR","MEAN_ANOMALY":"265.9404","SEMIMAJOR_AXIS":"6925.358","INCLINATION":"53.0549","CENTER_NAME":"EARTH","LAUNCH_DATE":"2021-03-24","PERIAPSIS":"545.989"},{"PERIOD":"95.592","TLE_LINE2":"2 48027  53.0555   1.2763 0001412  97.9955 262.1195 15.06399678103966","ECCENTRICITY":"0.00014120","CLASSIFICATION_TYPE":"U","OBJECT_ID":"2021-024BC","EPOCH":"2023-01-30T22:13:40.125504","REF_FRAME":"TEME","DECAY_DATE":null,"MEAN_MOTION_DOT":"0.00000613","BSTAR":"0.00006007200000","MEAN_MOTION_DDOT":"0.0000000000000","MEAN_ELEMENT_THEORY":"SGP4","OBJECT_NAME":"STARLINK-2300","COUNTRY_CODE":"US","APOAPSIS":"548.192","NORAD_CAT_ID":"48027","TIME_SYSTEM":"UTC","RCS_SIZE":"LARGE","RA_OF_ASC_NODE":"1.2763","TLE_LINE1":"1 48027U 21024BC  23030.92615886  .00000613  00000-0  60072-4 0  9992","GP_ID":"224052916","REV_AT_EPOCH":"10396","ARG_OF_PERICENTER":"97.9955","MEAN_MOTION":"15.06399678","EPHEMERIS_TYPE":"0","FILE":"3765849","SITE":"AFETR","OBJECT_TYPE":"PAYLOAD","ELEMENT_SET_NO":"999","MEAN_ANOMALY":"262.1195","SEMIMAJOR_AXIS":"6925.350","INCLINATION":"53.0555","PERIAPSIS":"546.237","LAUNCH_DATE":"2021-03-24","CENTER_NAME":"EARTH"},{"ECCENTRICITY":"0.00015870","CLASSIFICATION_TYPE":"U","TLE_LINE2":"2 48028  53.0536 320.0308 0001587  89.9631 270.1540 15.06397988104537","PERIOD":"95.592","COUNTRY_CODE":"US","OBJECT_NAME":"STARLINK-2264","MEAN_MOTION_DDOT":"0.0000000000000","MEAN_ELEMENT_THEORY":"SGP4","BSTAR":"0.00022301000000","MEAN_MOTION_DOT":"0.00003042","REF_FRAME":"TEME","EPOCH":"2023-01-30T04:19:35.291712","OBJECT_ID":"2021-024BD","DECAY_DATE":null,"OBJECT_TYPE":"PAYLOAD","SITE":"AFETR","ELEMENT_SET_NO":"999","MEAN_MOTION":"15.06397988","GP_ID":"223995221","REV_AT_EPOCH":"10453","ARG_OF_PERICENTER":"89.9631","FILE":"3765576","EPHEMERIS_TYPE":"0","RCS_SIZE":"LARGE","TIME_SYSTEM":"UTC","RA_OF_ASC_NODE":"320.0308","APOAPSIS":"548.319","NORAD_CAT_ID":"48028","TLE_LINE1":"1 48028U 21024BD  23030.18026958  .00003042  00000-0  22301-3 0  9998","PERIAPSIS":"546.121","LAUNCH_DATE":"2021-03-24","CENTER_NAME":"EARTH","INCLINATION":"53.0536","SEMIMAJOR_AXIS":"6925.355","MEAN_ANOMALY":"270.1540"},{"COUNTRY_CODE":"US","MEAN_MOTION_DDOT":"0.0000000000000","OBJECT_NAME":"STARLINK-2299","MEAN_ELEMENT_THEORY":"SGP4","BSTAR":"0.00103750000000","MEAN_MOTION_DOT":"0.00015215","REF_FRAME":"TEME","OBJECT_ID":"2021-024BE","EPOCH":"2023-01-30T18:22:46.294176","DECAY_DATE":null,"ECCENTRICITY":"0.00011910","CLASSIFICATION_TYPE":"U","TLE_LINE2":"2 48029  53.0560  21.9970 0001191  99.0118 261.1006 15.06421247103723","PERIOD":"95.591","LAUNCH_DATE":"2021-03-24","PERIAPSIS":"546.324","CENTER_NAME":"EARTH","INCLINATION":"53.0560","SEMIMAJOR_AXIS":"6925.283","MEAN_ANOMALY":"261.1006","OBJECT_TYPE":"PAYLOAD","SITE":"AFETR","ELEMENT_SET_NO":"999","MEAN_MOTION":"15.06421247","GP_ID":"224053418","ARG_OF_PERICENTER":"99.0118","REV_AT_EPOCH":"10372","EPHEMERIS_TYPE":"0","FILE":"3765849","RCS_SIZE":"LARGE","TIME_SYSTEM":"UTC","RA_OF_ASC_NODE":"21.9970","NORAD_CAT_ID":"48029","APOAPSIS":"547.973","TLE_LINE1":"1 48029U 21024BE  23030.76581359  .00015215  00000-0  10375-2 0  9996"},{"PERIOD":"95.591","TLE_LINE2":"2 48030  53.0536  28.3734 0001893 104.0556 256.0643 15.06410381103546","ECCENTRICITY":"0.00018930","CLASSIFICATION_TYPE":"U","REF_FRAME":"TEME","OBJECT_ID":"2021-024BF","EPOCH":"2023-01-30T11:04:13.900800","DECAY_DATE":null,"BSTAR":"0.00057633000000","MEAN_MOTION_DOT":"0.00008316","COUNTRY_CODE":"US","MEAN_ELEMENT_THEORY":"SGP4","MEAN_MOTION_DDOT":"0.0000000000000","OBJECT_NAME":"STARLINK-2268","RCS_SIZE":"LARGE","TIME_SYSTEM":"UTC","RA_OF_ASC_NODE":"28.3734","NORAD_CAT_ID":"48030","APOAPSIS":"548.493","TLE_LINE1":"1 48030U 21024BF  23030.46127200  .00008316  00000-0  57633-3 0  9999","MEAN_MOTION":"15.06410381","REV_AT_EPOCH":"10354","GP_ID":"223994723","ARG_OF_PERICENTER":"104.0556","EPHEMERIS_TYPE":"0","FILE":"3765576","OBJECT_TYPE":"PAYLOAD","SITE":"AFETR","ELEMENT_SET_NO":"999","MEAN_ANOMALY":"256.0643","SEMIMAJOR_AXIS":"6925.317","INCLINATION":"53.0536","LAUNCH_DATE":"2021-03-24","PERIAPSIS":"545.871","CENTER_NAME":"EARTH"},{"MEAN_MOTION_DOT":"0.00008596","BSTAR":"0.00059525000000","MEAN_ELEMENT_THEORY":"SGP4","MEAN_MOTION_DDOT":"0.0000000000000","OBJECT_NAME":"STARLINK-2267","COUNTRY_CODE":"US","DECAY_DATE":null,"EPOCH":"2023-01-30T21:32:33.390816","OBJECT_ID":"2021-024BG","REF_FRAME":"TEME","CLASSIFICATION_TYPE":"U","ECCENTRICITY":"0.00012050","PERIOD":"95.592","TLE_LINE2":"2 48031  53.0517 271.4152 0001205  97.9163 262.1963 15.06402686105221","INCLINATION":"53.0517","CENTER_NAME":"EARTH","LAUNCH_DATE":"2021-03-24","PERIAPSIS":"546.371","MEAN_ANOMALY":"262.1963","SEMIMAJOR_AXIS":"6925.340","ELEMENT_SET_NO":"999","SITE":"AFETR","OBJECT_TYPE":"PAYLOAD","TLE_LINE1":"1 48031U 21024BG  23030.89760869  .00008596  00000-0  59525-3 0  9993","NORAD_CAT_ID":"48031","APOAPSIS":"548.040","RA_OF_ASC_NODE":"271.4152","RCS_SIZE":"LARGE","TIME_SYSTEM":"UTC","FILE":"3765849","EPHEMERIS_TYPE":"0","ARG_OF_PERICENTER":"97.9163","GP_ID":"224052417","REV_AT_EPOCH":"10522","MEAN_MOTION":"15.06402686"}];
